*******************************************************************************
Ephemeris / WWW_USER Tue Mar 11 05:39:25 2025 Pasadena, USA      / Horizons    
*******************************************************************************
Target body name: (2018 RA1)                      {source: JPL#6}
Center body name: Earth (399)                     {source: DE441}
Center-site name: Gemini South Obs., Cerro Pachon
*******************************************************************************
Start time      : A.D. 2018-Jul-31 22:18:00.0000 UT      
Stop  time      : A.D. 2018-Aug-01 11:20:00.0000 UT      
Step-size       : 1 minutes
*******************************************************************************
Target pole/equ : undefined
Target radii    : undefined                                                    
Center geodetic : 289.2634, -30.2406227, 2.71233  {E-lon(deg),Lat(deg),Alt(km)}
Center cylindric: 289.2634,5517.21435,-3194.81213 {E-lon(deg),Dxy(km),Dz(km)}
Center pole/equ : ITRF93                          {East-longitude positive}
Center radii    : 6378.137, 6378.137, 6356.752 km {Equator_a, b, pole_c}       
Target primary  : Sun
Vis. interferer : MOON (R_eq= 1737.400) km        {source: DE441}
Rel. light bend : Sun                             {source: DE441}
Rel. lght bnd GM: 1.3271E+11 km^3/s^2                                          
Small-body perts: Yes                             {source: SB441-N16}
Atmos refraction: NO (AIRLESS)
RA format       : HMS
Time format     : CAL 
Calendar mode   : Mixed Julian/Gregorian
RTS-only print  : NO       
EOP file        : eop.250310.p250606                                           
EOP coverage    : DATA-BASED 1962-JAN-20 TO 2025-MAR-10. PREDICTS-> 2025-JUN-05
Units conversion: 1 au= 149597870.700 km, c= 299792.458 km/s, 1 day= 86400.0 s 
Table cut-offs 1: Elevation (-90.0deg=NO ),Airmass (>38.000=NO), Daylight (YES)
Table cut-offs 2: Solar elongation (  0.0,180.0=NO ),Local Hour Angle( 0.0=NO )
Table cut-offs 3: RA/DEC angular rate (     0.0=NO )                           
*******************************************************************************
Initial IAU76/J2000 heliocentric ecliptic osculating elements (au, days, deg.):
  EPOCH=  2458369.5 ! 2018-Sep-08.00 (TDB)         Residual RMS= .21275        
   EC= .3232115344739424   QR= .7703453101153647   TP= 2458436.6763547547      
   OM= 166.2054176892707   W=  269.7217787981747   IN= 8.763099478405824       
  Equivalent ICRF heliocentric cartesian coordinates (au, au/d):
   X= 9.899686155013647E-01  Y=-2.468208982240139E-01  Z=-1.030323866474361E-01
  VX=-9.411283005844916E-04 VY= 1.717513364149167E-02 VZ= 4.613440841260365E-03
Asteroid physical parameters (km, seconds, rotational period in hours):        
   GM= n.a.                RAD= n.a.               ROTPER= n.a.                
   H= 26.4                 G= .150                 B-V= n.a.                   
                           ALBEDO= n.a.            STYP= n.a.                  
*******************************************************************************
 Date__(UT)__HR:MN     R.A._________(ICRF)_________DEC
******************************************************
$$SOE
 2018-Aug-01 04:27  m  22 28 39.056531 +14 00 39.26403
 2018-Aug-01 04:28  m  22 28 39.066069 +14 00 39.69573
 2018-Aug-01 04:29  m  22 28 39.075586 +14 00 40.12730
 2018-Aug-01 04:30  m  22 28 39.085082 +14 00 40.55875
 2018-Aug-01 04:31  m  22 28 39.094557 +14 00 40.99008
 2018-Aug-01 04:32  m  22 28 39.104011 +14 00 41.42129
 2018-Aug-01 04:33  m  22 28 39.113445 +14 00 41.85236
 2018-Aug-01 04:34  m  22 28 39.122859 +14 00 42.28332
 2018-Aug-01 04:35  m  22 28 39.132252 +14 00 42.71415
 2018-Aug-01 04:36  m  22 28 39.141626 +14 00 43.14485
 2018-Aug-01 04:37  m  22 28 39.150979 +14 00 43.57543
 2018-Aug-01 04:38  m  22 28 39.160313 +14 00 44.00588
 2018-Aug-01 04:39  m  22 28 39.169627 +14 00 44.43621
 2018-Aug-01 04:40  m  22 28 39.178921 +14 00 44.86640
 2018-Aug-01 04:41  m  22 28 39.188196 +14 00 45.29647
 2018-Aug-01 04:42  m  22 28 39.197452 +14 00 45.72642
 2018-Aug-01 04:43  m  22 28 39.206689 +14 00 46.15623
 2018-Aug-01 04:44  m  22 28 39.215907 +14 00 46.58592
 2018-Aug-01 04:45  m  22 28 39.225106 +14 00 47.01548
 2018-Aug-01 04:46  m  22 28 39.234287 +14 00 47.44491
 2018-Aug-01 04:47  m  22 28 39.243449 +14 00 47.87422
 2018-Aug-01 04:48  m  22 28 39.252593 +14 00 48.30339
 2018-Aug-01 04:49  m  22 28 39.261719 +14 00 48.73243
 2018-Aug-01 04:50  m  22 28 39.270827 +14 00 49.16135
 2018-Aug-01 04:51  m  22 28 39.279916 +14 00 49.59013
 2018-Aug-01 04:52  m  22 28 39.288989 +14 00 50.01879
 2018-Aug-01 04:53  m  22 28 39.298043 +14 00 50.44731
 2018-Aug-01 04:54  m  22 28 39.307080 +14 00 50.87570
 2018-Aug-01 04:55  m  22 28 39.316100 +14 00 51.30396
 2018-Aug-01 04:56  m  22 28 39.325103 +14 00 51.73210
 2018-Aug-01 04:57  m  22 28 39.334089 +14 00 52.16009
 2018-Aug-01 04:58  m  22 28 39.343058 +14 00 52.58796
 2018-Aug-01 04:59  m  22 28 39.352011 +14 00 53.01570
 2018-Aug-01 05:00  m  22 28 39.360947 +14 00 53.44330
 2018-Aug-01 05:01  m  22 28 39.369866 +14 00 53.87077
 2018-Aug-01 05:02  m  22 28 39.378770 +14 00 54.29811
 2018-Aug-01 05:03  m  22 28 39.387657 +14 00 54.72531
 2018-Aug-01 05:04  m  22 28 39.396529 +14 00 55.15238
 2018-Aug-01 05:05  m  22 28 39.405385 +14 00 55.57932
 2018-Aug-01 05:06  m  22 28 39.414225 +14 00 56.00612
 2018-Aug-01 05:07  m  22 28 39.423050 +14 00 56.43279
 2018-Aug-01 05:08  m  22 28 39.431860 +14 00 56.85933
 2018-Aug-01 05:09  m  22 28 39.440654 +14 00 57.28573
 2018-Aug-01 05:10  m  22 28 39.449434 +14 00 57.71200
 2018-Aug-01 05:11  m  22 28 39.458199 +14 00 58.13813
 2018-Aug-01 05:12  m  22 28 39.466949 +14 00 58.56413
 2018-Aug-01 05:13  m  22 28 39.475685 +14 00 58.98999
 2018-Aug-01 05:14  m  22 28 39.484406 +14 00 59.41571
 2018-Aug-01 05:15  m  22 28 39.493114 +14 00 59.84130
 2018-Aug-01 05:16  m  22 28 39.501807 +14 01 00.26676
 2018-Aug-01 05:17  m  22 28 39.510487 +14 01 00.69207
 2018-Aug-01 05:18  m  22 28 39.519153 +14 01 01.11725
 2018-Aug-01 05:19  m  22 28 39.527805 +14 01 01.54230
 2018-Aug-01 05:20  m  22 28 39.536444 +14 01 01.96721
 2018-Aug-01 05:21  m  22 28 39.545070 +14 01 02.39198
 2018-Aug-01 05:22  m  22 28 39.553683 +14 01 02.81661
 2018-Aug-01 05:23  m  22 28 39.562283 +14 01 03.24110
 2018-Aug-01 05:24  m  22 28 39.570870 +14 01 03.66546
 2018-Aug-01 05:25  m  22 28 39.579444 +14 01 04.08968
 2018-Aug-01 05:26  m  22 28 39.588007 +14 01 04.51376
 2018-Aug-01 05:27  m  22 28 39.596557 +14 01 04.93771
 2018-Aug-01 05:28  m  22 28 39.605095 +14 01 05.36151
 2018-Aug-01 05:29  m  22 28 39.613621 +14 01 05.78518
 2018-Aug-01 05:30  m  22 28 39.622135 +14 01 06.20871
 2018-Aug-01 05:31  m  22 28 39.630638 +14 01 06.63210
 2018-Aug-01 05:32  m  22 28 39.639129 +14 01 07.05535
 2018-Aug-01 05:33  m  22 28 39.647609 +14 01 07.47846
 2018-Aug-01 05:34  m  22 28 39.656078 +14 01 07.90143
 2018-Aug-01 05:35  m  22 28 39.664536 +14 01 08.32426
 2018-Aug-01 05:36  m  22 28 39.672983 +14 01 08.74695
 2018-Aug-01 05:37  m  22 28 39.681420 +14 01 09.16950
 2018-Aug-01 05:38  m  22 28 39.689846 +14 01 09.59191
 2018-Aug-01 05:39  m  22 28 39.698262 +14 01 10.01418
 2018-Aug-01 05:40  m  22 28 39.706668 +14 01 10.43632
 2018-Aug-01 05:41  m  22 28 39.715064 +14 01 10.85831
 2018-Aug-01 05:42  m  22 28 39.723450 +14 01 11.28015
 2018-Aug-01 05:43  m  22 28 39.731826 +14 01 11.70186
 2018-Aug-01 05:44  m  22 28 39.740193 +14 01 12.12343
 2018-Aug-01 05:45  m  22 28 39.748551 +14 01 12.54486
 2018-Aug-01 05:46  m  22 28 39.756899 +14 01 12.96614
 2018-Aug-01 05:47  m  22 28 39.765239 +14 01 13.38728
 2018-Aug-01 05:48  m  22 28 39.773570 +14 01 13.80829
 2018-Aug-01 05:49  m  22 28 39.781892 +14 01 14.22915
 2018-Aug-01 05:50  m  22 28 39.790205 +14 01 14.64986
 2018-Aug-01 05:51  m  22 28 39.798511 +14 01 15.07044
 2018-Aug-01 05:52  m  22 28 39.806808 +14 01 15.49087
 2018-Aug-01 05:53  m  22 28 39.815097 +14 01 15.91117
 2018-Aug-01 05:54  m  22 28 39.823379 +14 01 16.33132
 2018-Aug-01 05:55  m  22 28 39.831652 +14 01 16.75132
 2018-Aug-01 05:56  m  22 28 39.839919 +14 01 17.17119
 2018-Aug-01 05:57  m  22 28 39.848177 +14 01 17.59091
 2018-Aug-01 05:58  m  22 28 39.856429 +14 01 18.01049
 2018-Aug-01 05:59  m  22 28 39.864674 +14 01 18.42992
 2018-Aug-01 06:00  m  22 28 39.872912 +14 01 18.84922
 2018-Aug-01 06:01  m  22 28 39.881144 +14 01 19.26837
 2018-Aug-01 06:02  m  22 28 39.889368 +14 01 19.68737
 2018-Aug-01 06:03  m  22 28 39.897587 +14 01 20.10624
 2018-Aug-01 06:04  m  22 28 39.905799 +14 01 20.52496
 2018-Aug-01 06:05  m  22 28 39.914006 +14 01 20.94353
 2018-Aug-01 06:06  m  22 28 39.922207 +14 01 21.36197
 2018-Aug-01 06:07  m  22 28 39.930402 +14 01 21.78026
 2018-Aug-01 06:08  m  22 28 39.938591 +14 01 22.19840
 2018-Aug-01 06:09  m  22 28 39.946775 +14 01 22.61640
 2018-Aug-01 06:10  m  22 28 39.954955 +14 01 23.03426
 2018-Aug-01 06:11  m  22 28 39.963129 +14 01 23.45197
 2018-Aug-01 06:12  m  22 28 39.971298 +14 01 23.86954
 2018-Aug-01 06:13  m  22 28 39.979463 +14 01 24.28697
 2018-Aug-01 06:14  m  22 28 39.987623 +14 01 24.70425
 2018-Aug-01 06:15  m  22 28 39.995779 +14 01 25.12139
 2018-Aug-01 06:16  m  22 28 40.003931 +14 01 25.53838
 2018-Aug-01 06:17  m  22 28 40.012078 +14 01 25.95523
 2018-Aug-01 06:18  m  22 28 40.020223 +14 01 26.37193
 2018-Aug-01 06:19  m  22 28 40.028363 +14 01 26.78849
 2018-Aug-01 06:20  m  22 28 40.036500 +14 01 27.20491
 2018-Aug-01 06:21  m  22 28 40.044634 +14 01 27.62118
 2018-Aug-01 06:22  m  22 28 40.052764 +14 01 28.03730
 2018-Aug-01 06:23  m  22 28 40.060892 +14 01 28.45328
 2018-Aug-01 06:24  m  22 28 40.069017 +14 01 28.86912
 2018-Aug-01 06:25  m  22 28 40.077139 +14 01 29.28481
 2018-Aug-01 06:26  m  22 28 40.085259 +14 01 29.70036
 2018-Aug-01 06:27  m  22 28 40.093376 +14 01 30.11576
 2018-Aug-01 06:28  m  22 28 40.101491 +14 01 30.53101
 2018-Aug-01 06:29  m  22 28 40.109605 +14 01 30.94613
